{"type": "FeatureCollection", "features": [ {"type": "Feature", "properties": {"norad_id": 30435, "name": "FENGYUN 1C DEB", "group": "fengyun-1c-debris", "lat": -39.432051101335844, "lon": -23.574693833338184, "alt_km": 1117.4137430212222, "timestamp": "2025-12-08T10:52:03.224002+00:00", "meta": {"OBJECT_NAME": "FENGYUN 1C DEB", "OBJECT_ID": "1999-025AEW", "EPOCH": "2025-12-07T16:13:59.740032", "MEAN_MOTION": 13.79594473, "ECCENTRICITY": 0.02073041, "INCLINATION": 99.0167, "RA_OF_ASC_NODE": 328.1827, "ARG_OF_PERICENTER": 125.6136, "MEAN_ANOMALY": 301.041, "EPHEMERIS_TYPE": 0, "CLASSIFICATION_TYPE": "U", "NORAD_CAT_ID": 30435, "ELEMENT_SET_NO": 999, "REV_AT_EPOCH": 94090, "BSTAR": 0.0023157727, "MEAN_MOTION_DOT": 2.767e-05, "MEAN_MOTION_DDOT": 0}, "tle": {"line1": "1 30435U 99025AEW 25341.67638588  .00002767  00000+0  23158-2 0  9998", "line2": "2 30435  99.0167 328.1827 0207304 125.6136 301.0410 13.79594473940903"}}, "geometry": {"type": "Point", "coordinates": [-23.574693833338184, -39.432051101335844]}}, {"type": "Feature", "properties": {"norad_id": 30436, "name": "FENGYUN 1C DEB", "group": "fengyun-1c-debris", "lat": 70.87407788817687, "lon": -148.6644107376887, "alt_km": 790.4384987390285, "timestamp": "2025-12-08T10:52:03.224013+00:00", "meta": {"OBJECT_NAME": "FENGYUN 1C DEB", "OBJECT_ID": "1999-025AEX", "EPOCH": "2025-12-07T23:16:37.587936", "MEAN_MOTION": 14.22224677, "ECCENTRICITY": 0.0096978, "INCLINATION": 98.4262, "RA_OF_ASC_NODE": 236.1788, "ARG_OF_PERICENTER": 147.6495, "MEAN_ANOMALY": 334.9835, "EPHEMERIS_TYPE": 0, "CLASSIFICATION_TYPE": "U", "NORAD_CAT_ID": 30436, "ELEMENT_SET_NO": 999, "REV_AT_EPOCH": 96369, "BSTAR": 0.0024795177, "MEAN_MOTION_DOT": 5.736e-05, "MEAN_MOTION_DDOT": 0}, "tle": {"line1": "1 30436U 99025AEX 25341.96987949  .00005736  00000+0  24795-2 0  9996", "line2": "2 30436  98.4262 236.1788 0096978 147.6495 334.9835 14.22224677963694"}}, "geometry": {"type": "Point", "coordinates": [-148.6644107376887, 70.87407788817687]}}, {"type": "Feature", "properties": {"norad_id": 30437, "name": "FENGYUN 1C DEB", "group": "fengyun-1c-debris", "lat": -46.80214903226957, "lon": 172.05536501445823, "alt_km": 621.0859465591939, "timestamp": "2025-12-08T10:52:03.224023+00:00", "meta": {"OBJECT_NAME": "FENGYUN 1C DEB", "OBJECT_ID": "1999-025AEY", "EPOCH": "2025-12-07T17:59:03.064992", "MEAN_MOTION": 14.87720543, "ECCENTRICITY": 0.00359839, "INCLINATION": 98.9217, "RA_OF_ASC_NODE": 0.8957, "ARG_OF_PERICENTER": 117.5554, "MEAN_ANOMALY": 304.0515, "EPHEMERIS_TYPE": 0, "CLASSIFICATION_TYPE": "U", "NORAD_CAT_ID": 30437, "ELEMENT_SET_NO": 999, "REV_AT_EPOCH": 99113, "BSTAR": 0.0037292113, "MEAN_MOTION_DOT": 0.00034489, "MEAN_MOTION_DDOT": 0}, "tle": {"line1": "1 30437U 99025AEY 25341.74934103  .00034489  00000+0  37292-2 0  9990", "line2": "2 30437  98.9217   0.8957 0035983 117.5554 304.0515 14.87720543991132"}}, "geometry": {"type": "Point", "coordinates": [172.05536501445823, -46.80214903226957]}}, {"type": "Feature", "properties": {"norad_id": 30438, "name": "FENGYUN 1C DEB", "group": "fengyun-1c-debris", "lat": 72.13103465792526, "lon": -28.815564488935532, "alt_km": 968.6080218480183, "timestamp": "2025-12-08T10:52:03.224035+00:00", "meta": {"OBJECT_NAME": "FENGYUN 1C DEB", "OBJECT_ID": "1999-025AEZ", "EPOCH": "2025-12-07T13:48:10.844064", "MEAN_MOTION": 13.92075484, "ECCENTRICITY": 0.01346748, "INCLINATION": 98.7497, "RA_OF_ASC_NODE": 358.8906, "ARG_OF_PERICENTER": 200.9167, "MEAN_ANOMALY": 158.6453, "EPHEMERIS_TYPE": 0, "CLASSIFICATION_TYPE": "U", "NORAD_CAT_ID": 30438, "ELEMENT_SET_NO": 999, "REV_AT_EPOCH": 95234, "BSTAR": 0.001950108, "MEAN_MOTION_DOT": 2.644e-05, "MEAN_MOTION_DDOT": 0}, "tle": {"line1": "1 30438U 99025AEZ 25341.57512551  .00002644  00000+0  19501-2 0  9992", "line2": "2 30438  98.7497 358.8906 0134674 200.9167 158.6453 13.92075484952341"}}, "geometry": {"type": "Point", "coordinates": [-28.815564488935532, 72.13103465792526]}}, {"type": "Feature", "properties": {"norad_id": 30439, "name": "FENGYUN 1C DEB", "group": "fengyun-1c-debris", "lat": 71.66566182931443, "lon": -158.0119158207264, "alt_km": 869.2343466559378, "timestamp": "2025-12-08T10:52:03.224045+00:00", "meta": {"OBJECT_NAME": "FENGYUN 1C DEB", "OBJECT_ID": "1999-025AFA", "EPOCH": "2025-12-07T22:45:39.548160", "MEAN_MOTION": 14.08827688, "ECCENTRICITY": 0.00390084, "INCLINATION": 98.75, "RA_OF_ASC_NODE": 353.8042, "ARG_OF_PERICENTER": 350.4479, "MEAN_ANOMALY": 78.3083, "EPHEMERIS_TYPE": 0, "CLASSIFICATION_TYPE": "U", "NORAD_CAT_ID": 30439, "ELEMENT_SET_NO": 999, "REV_AT_EPOCH": 96724, "BSTAR": 0.00065187172, "MEAN_MOTION_DOT": 1.09e-05, "MEAN_MOTION_DDOT": 0}, "tle": {"line1": "1 30439U 99025AFA 25341.94837440  .00001090  00000+0  65187-3 0  9997", "line2": "2 30439  98.7500 353.8042 0039008 350.4479  78.3083 14.08827688967246"}}, "geometry": {"type": "Point", "coordinates": [-158.0119158207264, 71.66566182931443]}}, {"type": "Feature", "properties": {"norad_id": 30441, "name": "FENGYUN 1C DEB", "group": "fengyun-1c-debris", "lat": -52.57621945366607, "lon": -120.15985675271403, "alt_km": 868.4915595172124, "timestamp": "2025-12-08T10:52:03.224055+00:00", "meta": {"OBJECT_NAME": "FENGYUN 1C DEB", "OBJECT_ID": "1999-025AFC", "EPOCH": "2025-12-07T18:02:04.619040", "MEAN_MOTION": 13.77668777, "ECCENTRICITY": 0.01836342, "INCLINATION": 99.1352, "RA_OF_ASC_NODE": 71.3036, "ARG_OF_PERICENTER": 270.953, "MEAN_ANOMALY": 87.0587, "EPHEMERIS_TYPE": 0, "CLASSIFICATION_TYPE": "U", "NORAD_CAT_ID": 30441, "ELEMENT_SET_NO": 999, "REV_AT_EPOCH": 94801, "BSTAR": 0.00096800045, "MEAN_MOTION_DOT": 1.051e-05, "MEAN_MOTION_DDOT": 0}, "tle": {"line1": "1 30441U 99025AFC 25341.75144235  .00001051  00000+0  96800-3 0  9995", "line2": "2 30441  99.1352  71.3036 0183634 270.9530  87.0587 13.77668777948010"}}, "geometry": {"type": "Point", "coordinates": [-120.15985675271403, -52.57621945366607]}}, {"type": "Feature", "properties": {"norad_id": 30442, "name": "FENGYUN 1C DEB", "group": "fengyun-1c-debris", "lat": -37.91816291589817, "lon": -111.00550744885953, "alt_km": 797.0931518342186, "timestamp": "2025-12-08T10:52:03.224066+00:00", "meta": {"OBJECT_NAME": "FENGYUN 1C DEB", "OBJECT_ID": "1999-025AFD", "EPOCH": "2025-12-07T17:01:59.764800", "MEAN_MOTION": 14.28533469, "ECCENTRICITY": 0.00545359, "INCLINATION": 98.8672, "RA_OF_ASC_NODE": 75.2245, "ARG_OF_PERICENTER": 302.2169, "MEAN_ANOMALY": 57.3731, "EPHEMERIS_TYPE": 0, "CLASSIFICATION_TYPE": "U", "NORAD_CAT_ID": 30442, "ELEMENT_SET_NO": 999, "REV_AT_EPOCH": 97090, "BSTAR": 0.0035555952, "MEAN_MOTION_DOT": 9.021e-05, "MEAN_MOTION_DDOT": 0}, "tle": {"line1": "1 30442U 99025AFD 25341.70971950  .00009021  00000+0  35556-2 0  9998", "line2": "2 30442  98.8672  75.2245 0054535 302.2169  57.3731 14.28533469970901"}}, "geometry": {"type": "Point", "coordinates": [-111.00550744885953, -37.91816291589817]}}, {"type": "Feature", "properties": {"norad_id": 30443, "name": "FENGYUN 1C DEB", "group": "fengyun-1c-debris", "lat": -75.11096045373691, "lon": 73.58500439528511, "alt_km": 777.6524655966614, "timestamp": "2025-12-08T10:52:03.224076+00:00", "meta": {"OBJECT_NAME": "FENGYUN 1C DEB", "OBJECT_ID": "1999-025AFE", "EPOCH": "2025-12-07T20:17:49.741440", "MEAN_MOTION": 14.36688791, "ECCENTRICITY": 0.00281436, "INCLINATION": 98.8483, "RA_OF_ASC_NODE": 288.827, "ARG_OF_PERICENTER": 352.6204, "MEAN_ANOMALY": 7.4564, "EPHEMERIS_TYPE": 0, "CLASSIFICATION_TYPE": "U", "NORAD_CAT_ID": 30443, "ELEMENT_SET_NO": 999, "REV_AT_EPOCH": 97363, "BSTAR": 0.0043784085, "MEAN_MOTION_DOT": 0.00012934, "MEAN_MOTION_DDOT": 0}, "tle": {"line1": "1 30443U 99025AFE 25341.84571460  .00012934  00000+0  43784-2 0  9995", "line2": "2 30443  98.8483 288.8270 0028143 352.6204   7.4564 14.36688791973638"}}, "geometry": {"type": "Point", "coordinates": [73.58500439528511, -75.11096045373691]}}, {"type": "Feature", "properties": {"norad_id": 30445, "name": "FENGYUN 1C DEB", "group": "fengyun-1c-debris", "lat": 55.07300134678511, "lon": -79.26021510063713, "alt_km": 656.0081994735392, "timestamp": "2025-12-08T10:52:03.224086+00:00", "meta": {"OBJECT_NAME": "FENGYUN 1C DEB", "OBJECT_ID": "1999-025AFG", "EPOCH": "2025-12-07T19:41:47.543424", "MEAN_MOTION": 14.48699762, "ECCENTRICITY": 0.01062737, "INCLINATION": 98.8348, "RA_OF_ASC_NODE": 292.9478, "ARG_OF_PERICENTER": 33.0179, "MEAN_ANOMALY": 327.759, "EPHEMERIS_TYPE": 0, "CLASSIFICATION_TYPE": "U", "NORAD_CAT_ID": 30445, "ELEMENT_SET_NO": 999, "REV_AT_EPOCH": 99113, "BSTAR": 0.0013415896, "MEAN_MOTION_DOT": 5.381e-05, "MEAN_MOTION_DDOT": 0}, "tle": {"line1": "1 30445U 99025AFG 25341.82068916  .00005381  00000+0  13416-2 0  9999", "line2": "2 30445  98.8348 292.9478 0106273  33.0179 327.7590 14.48699762991133"}}, "geometry": {"type": "Point", "coordinates": [-79.26021510063713, 55.07300134678511]}}, {"type": "Feature", "properties": {"norad_id": 30446, "name": "FENGYUN 1C DEB", "group": "fengyun-1c-debris", "lat": -75.01053931506708, "lon": -149.58499900040448, "alt_km": 771.4356725384569, "timestamp": "2025-12-08T10:52:03.224096+00:00", "meta": {"OBJECT_NAME": "FENGYUN 1C DEB", "OBJECT_ID": "1999-025AFH", "EPOCH": "2025-12-07T22:02:42.702720", "MEAN_MOTION": 14.44634886, "ECCENTRICITY": 0.00352248, "INCLINATION": 98.6143, "RA_OF_ASC_NODE": 64.3564, "ARG_OF_PERICENTER": 112.5811, "MEAN_ANOMALY": 247.9113, "EPHEMERIS_TYPE": 0, "CLASSIFICATION_TYPE": "U", "NORAD_CAT_ID": 30446, "ELEMENT_SET_NO": 999, "REV_AT_EPOCH": 98107, "BSTAR": 0.0023361525, "MEAN_MOTION_DOT": 8.114e-05, "MEAN_MOTION_DDOT": 0}, "tle": {"line1": "1 30446U 99025AFH 25341.91854980  .00008114  00000+0  23362-2 0  9992", "line2": "2 30446  98.6143  64.3564 0035224 112.5811 247.9113 14.44634886981073"}}, "geometry": {"type": "Point", "coordinates": [-149.58499900040448, -75.01053931506708]}}]}